{"type": "FeatureCollection", "features": [ {"type": "Feature", "properties": {"norad_id": 32364, "name": "FENGYUN 1C DEB", "group": "fengyun-1c-debris", "lat": 0.5708439942971474, "lon": 6.232254725509288, "alt_km": 749.8266191539242, "timestamp": "2025-12-13T05:42:57.846273+00:00", "meta": {"OBJECT_NAME": "FENGYUN 1C DEB", "OBJECT_ID": "1999-025CZH", "EPOCH": "2025-11-29T08:05:37.624992", "MEAN_MOTION": 14.14317962, "ECCENTRICITY": 0.01349396, "INCLINATION": 98.2918, "RA_OF_ASC_NODE": 173.2369, "ARG_OF_PERICENTER": 222.8285, "MEAN_ANOMALY": 136.2316, "EPHEMERIS_TYPE": 0, "CLASSIFICATION_TYPE": "U", "NORAD_CAT_ID": 32364, "ELEMENT_SET_NO": 999, "REV_AT_EPOCH": 63519, "BSTAR": 0.0022712328, "MEAN_MOTION_DOT": 4.699e-05, "MEAN_MOTION_DDOT": 0}, "tle": {"line1": "1 32364U 99025CZH 25333.33724103  .00004699  00000+0  22712-2 0  9995", "line2": "2 32364  98.2918 173.2369 0134939 222.8285 136.2316 14.14317962635190"}}, "geometry": {"type": "Point", "coordinates": [6.232254725509288, 0.5708439942971474]}}, {"type": "Feature", "properties": {"norad_id": 32366, "name": "FENGYUN 1C DEB", "group": "fengyun-1c-debris", "lat": -52.857744864674764, "lon": -79.5419667783219, "alt_km": 769.9955702181387, "timestamp": "2025-12-13T05:42:57.846284+00:00", "meta": {"OBJECT_NAME": "FENGYUN 1C DEB", "OBJECT_ID": "1999-025CZK", "EPOCH": "2025-12-08T14:12:00.516096", "MEAN_MOTION": 14.13792516, "ECCENTRICITY": 0.0135685, "INCLINATION": 96.7753, "RA_OF_ASC_NODE": 105.9605, "ARG_OF_PERICENTER": 279.4938, "MEAN_ANOMALY": 79.0927, "EPHEMERIS_TYPE": 0, "CLASSIFICATION_TYPE": "U", "NORAD_CAT_ID": 32366, "ELEMENT_SET_NO": 999, "REV_AT_EPOCH": 93145, "BSTAR": 0.0026243, "MEAN_MOTION_DOT": 5.396e-05, "MEAN_MOTION_DDOT": 0}, "tle": {"line1": "1 32366U 99025CZK 25342.59167264  .00005396  00000+0  26243-2 0  9992", "line2": "2 32366  96.7753 105.9605 0135685 279.4938  79.0927 14.13792516931450"}}, "geometry": {"type": "Point", "coordinates": [-79.5419667783219, -52.857744864674764]}}, {"type": "Feature", "properties": {"norad_id": 32372, "name": "FENGYUN 1C DEB", "group": "fengyun-1c-debris", "lat": -24.04691786780358, "lon": 44.918376660380915, "alt_km": 1463.835195504591, "timestamp": "2025-12-13T05:42:57.846295+00:00", "meta": {"OBJECT_NAME": "FENGYUN 1C DEB", "OBJECT_ID": "1999-025CZR", "EPOCH": "2025-12-11T11:21:44.110080", "MEAN_MOTION": 13.35367723, "ECCENTRICITY": 0.04586798, "INCLINATION": 97.3163, "RA_OF_ASC_NODE": 226.9338, "ARG_OF_PERICENTER": 43.4714, "MEAN_ANOMALY": 320.164, "EPHEMERIS_TYPE": 0, "CLASSIFICATION_TYPE": "U", "NORAD_CAT_ID": 32372, "ELEMENT_SET_NO": 999, "REV_AT_EPOCH": 60123, "BSTAR": 0.003543376, "MEAN_MOTION_DOT": 3.249e-05, "MEAN_MOTION_DDOT": 0}, "tle": {"line1": "1 32372U 99025CZR 25345.47342720  .00003249  00000+0  35434-2 0  9998", "line2": "2 32372  97.3163 226.9338 0458679  43.4714 320.1640 13.35367723601231"}}, "geometry": {"type": "Point", "coordinates": [44.918376660380915, -24.04691786780358]}}, {"type": "Feature", "properties": {"norad_id": 32409, "name": "FENGYUN 1C DEB", "group": "fengyun-1c-debris", "lat": 46.601109059459745, "lon": -18.548985728914758, "alt_km": 610.9206642563158, "timestamp": "2025-12-13T05:42:57.846306+00:00", "meta": {"OBJECT_NAME": "FENGYUN 1C DEB", "OBJECT_ID": "1999-025CZV", "EPOCH": "2025-12-07T05:07:54.004800", "MEAN_MOTION": 14.7602828, "ECCENTRICITY": 0.00392582, "INCLINATION": 99.5677, "RA_OF_ASC_NODE": 144.053, "ARG_OF_PERICENTER": 169.8692, "MEAN_ANOMALY": 6.8268, "EPHEMERIS_TYPE": 0, "CLASSIFICATION_TYPE": "U", "NORAD_CAT_ID": 32409, "ELEMENT_SET_NO": 999, "REV_AT_EPOCH": 58757, "BSTAR": 0.00306852, "MEAN_MOTION_DOT": 0.00021404, "MEAN_MOTION_DDOT": 0}, "tle": {"line1": "1 32409U 99025CZV 25341.21381950  .00021404  00000+0  30685-2 0  9991", "line2": "2 32409  99.5677 144.0530 0039258 169.8692   6.8268 14.76028280587578"}}, "geometry": {"type": "Point", "coordinates": [-18.548985728914758, 46.601109059459745]}}, {"type": "Feature", "properties": {"norad_id": 32411, "name": "FENGYUN 1C DEB", "group": "fengyun-1c-debris", "lat": -28.123029513951632, "lon": -90.29003421860088, "alt_km": 799.5628568462171, "timestamp": "2025-12-13T05:42:57.846317+00:00", "meta": {"OBJECT_NAME": "FENGYUN 1C DEB", "OBJECT_ID": "1999-025CZX", "EPOCH": "2025-12-04T00:25:02.853696", "MEAN_MOTION": 14.09783201, "ECCENTRICITY": 0.0124615, "INCLINATION": 98.4286, "RA_OF_ASC_NODE": 256.5257, "ARG_OF_PERICENTER": 41.2219, "MEAN_ANOMALY": 319.8282, "EPHEMERIS_TYPE": 0, "CLASSIFICATION_TYPE": "U", "NORAD_CAT_ID": 32411, "ELEMENT_SET_NO": 999, "REV_AT_EPOCH": 65691, "BSTAR": 0.00077808589, "MEAN_MOTION_DOT": 1.43e-05, "MEAN_MOTION_DDOT": 0}, "tle": {"line1": "1 32411U 99025CZX 25338.01739414  .00001430  00000+0  77809-3 0  9997", "line2": "2 32411  98.4286 256.5257 0124615  41.2219 319.8282 14.09783201656915"}}, "geometry": {"type": "Point", "coordinates": [-90.29003421860088, -28.123029513951632]}}, {"type": "Feature", "properties": {"norad_id": 32414, "name": "FENGYUN 1C DEB", "group": "fengyun-1c-debris", "lat": 80.8660097751378, "lon": -18.007659134644708, "alt_km": 823.3903497298743, "timestamp": "2025-12-13T05:42:57.846328+00:00", "meta": {"OBJECT_NAME": "FENGYUN 1C DEB", "OBJECT_ID": "1999-025DAA", "EPOCH": "2025-12-08T10:10:57.710784", "MEAN_MOTION": 14.18376108, "ECCENTRICITY": 0.00450145, "INCLINATION": 98.8578, "RA_OF_ASC_NODE": 53.0907, "ARG_OF_PERICENTER": 11.0611, "MEAN_ANOMALY": 349.1543, "EPHEMERIS_TYPE": 0, "CLASSIFICATION_TYPE": "U", "NORAD_CAT_ID": 32414, "ELEMENT_SET_NO": 999, "REV_AT_EPOCH": 93671, "BSTAR": 0.0020734301, "MEAN_MOTION_DOT": 4.277e-05, "MEAN_MOTION_DDOT": 0}, "tle": {"line1": "1 32414U 99025DAA 25342.42427906  .00004277  00000+0  20734-2 0  9996", "line2": "2 32414  98.8578  53.0907 0045014  11.0611 349.1543 14.18376108936713"}}, "geometry": {"type": "Point", "coordinates": [-18.007659134644708, 80.8660097751378]}}, {"type": "Feature", "properties": {"norad_id": 32419, "name": "FENGYUN 1C DEB", "group": "fengyun-1c-debris", "lat": -48.33869035459153, "lon": 93.42367995262012, "alt_km": 1057.0973220860187, "timestamp": "2025-12-13T05:42:57.846339+00:00", "meta": {"OBJECT_NAME": "FENGYUN 1C DEB", "OBJECT_ID": "1999-025DAF", "EPOCH": "2025-12-11T15:09:56.013984", "MEAN_MOTION": 14.09908253, "ECCENTRICITY": 0.02839501, "INCLINATION": 97.9459, "RA_OF_ASC_NODE": 281.0334, "ARG_OF_PERICENTER": 32.1797, "MEAN_ANOMALY": 329.6358, "EPHEMERIS_TYPE": 0, "CLASSIFICATION_TYPE": "U", "NORAD_CAT_ID": 32419, "ELEMENT_SET_NO": 999, "REV_AT_EPOCH": 63555, "BSTAR": 0.0013854285, "MEAN_MOTION_DOT": 3.513e-05, "MEAN_MOTION_DDOT": 0}, "tle": {"line1": "1 32419U 99025DAF 25345.63189831  .00003513  00000+0  13854-2 0  9996", "line2": "2 32419  97.9459 281.0334 0283950  32.1797 329.6358 14.09908253635552"}}, "geometry": {"type": "Point", "coordinates": [93.42367995262012, -48.33869035459153]}}, {"type": "Feature", "properties": {"norad_id": 32422, "name": "FENGYUN 1C DEB", "group": "fengyun-1c-debris", "lat": 13.606492290286138, "lon": 116.75821594316812, "alt_km": 867.1158594447234, "timestamp": "2025-12-13T05:42:57.846350+00:00", "meta": {"OBJECT_NAME": "FENGYUN 1C DEB", "OBJECT_ID": "1999-025DAJ", "EPOCH": "2025-12-10T15:48:54.548352", "MEAN_MOTION": 13.98002768, "ECCENTRICITY": 0.0298224, "INCLINATION": 97.8401, "RA_OF_ASC_NODE": 116.4609, "ARG_OF_PERICENTER": 298.6669, "MEAN_ANOMALY": 58.4812, "EPHEMERIS_TYPE": 0, "CLASSIFICATION_TYPE": "U", "NORAD_CAT_ID": 32422, "ELEMENT_SET_NO": 999, "REV_AT_EPOCH": 63104, "BSTAR": 0.00051946, "MEAN_MOTION_DOT": 1.039e-05, "MEAN_MOTION_DDOT": 0}, "tle": {"line1": "1 32422U 99025DAJ 25344.65896468  .00001039  00000+0  51946-3 0  9998", "line2": "2 32422  97.8401 116.4609 0298224 298.6669  58.4812 13.98002768631040"}}, "geometry": {"type": "Point", "coordinates": [116.75821594316812, 13.606492290286138]}}, {"type": "Feature", "properties": {"norad_id": 32425, "name": "FENGYUN 1C DEB", "group": "fengyun-1c-debris", "lat": -13.849277648959086, "lon": 137.11488226824068, "alt_km": 727.0932118271048, "timestamp": "2025-12-13T05:42:57.846362+00:00", "meta": {"OBJECT_NAME": "FENGYUN 1C DEB", "OBJECT_ID": "1999-025DAM", "EPOCH": "2025-12-06T04:16:42.340512", "MEAN_MOTION": 14.16717033, "ECCENTRICITY": 0.02322591, "INCLINATION": 96.701, "RA_OF_ASC_NODE": 130.1238, "ARG_OF_PERICENTER": 319.3009, "MEAN_ANOMALY": 39.1014, "EPHEMERIS_TYPE": 0, "CLASSIFICATION_TYPE": "U", "NORAD_CAT_ID": 32425, "ELEMENT_SET_NO": 999, "REV_AT_EPOCH": 69442, "BSTAR": 0.00073001869, "MEAN_MOTION_DOT": 1.869e-05, "MEAN_MOTION_DDOT": 0}, "tle": {"line1": "1 32425U 99025DAM 25340.17826783  .00001869  00000+0  73002-3 0  9995", "line2": "2 32425  96.7010 130.1238 0232259 319.3009  39.1014 14.16717033694423"}}, "geometry": {"type": "Point", "coordinates": [137.11488226824068, -13.849277648959086]}}, {"type": "Feature", "properties": {"norad_id": 32430, "name": "FENGYUN 1C DEB", "group": "fengyun-1c-debris", "lat": 28.41109377958871, "lon": 7.176872355024654, "alt_km": 1128.3640461878804, "timestamp": "2025-12-13T05:42:57.846373+00:00", "meta": {"OBJECT_NAME": "FENGYUN 1C DEB", "OBJECT_ID": "1999-025DAS", "EPOCH": "2025-12-10T07:28:04.587744", "MEAN_MOTION": 13.70091314, "ECCENTRICITY": 0.0371791, "INCLINATION": 98.6989, "RA_OF_ASC_NODE": 9.2735, "ARG_OF_PERICENTER": 276.3648, "MEAN_ANOMALY": 79.5293, "EPHEMERIS_TYPE": 0, "CLASSIFICATION_TYPE": "U", "NORAD_CAT_ID": 32430, "ELEMENT_SET_NO": 999, "REV_AT_EPOCH": 91170, "BSTAR": 0.0016009, "MEAN_MOTION_DOT": 2.253e-05, "MEAN_MOTION_DDOT": 0}, "tle": {"line1": "1 32430U 99025DAS 25344.31116421  .00002253  00000+0  16009-2 0  9993", "line2": "2 32430  98.6989   9.2735 0371791 276.3648  79.5293 13.70091314911705"}}, "geometry": {"type": "Point", "coordinates": [7.176872355024654, 28.41109377958871]}}]}